GLOBALSTAR M001 [-]     
1 25162U 98008A   23332.92224072 -.00000043  00000+0  41042-3 0  9993
2 25162  52.0010 181.3274 0002606 114.2325 353.0298 12.38174031173566
GLOBALSTAR M004 [-]     
1 25163U 98008B   23332.47671793 -.00000031  00000+0  40365-3 0  9994
2 25163  52.0011 342.9827 0003266 109.4954  54.9878 12.63343324190059
GLOBALSTAR M002 [-]     
1 25164U 98008C   23332.90482554 -.00000040  00000+0  71499-3 0  9990
2 25164  52.0000 220.0478 0001260 134.6668 225.4255 11.61497656118262
GLOBALSTAR M003 [-]     
1 25165U 98008D   23332.42438608  .00000038  00000+0  13559-2 0  9997
2 25165  51.9788 298.3182 0007492 232.2180 305.4129 12.11956522164494
GLOBALSTAR M014 [-]     
1 25306U 98023A   23332.82982554 -.00000066  00000+0  21244-3 0  9992
2 25306  51.9803 155.3637 0001865  71.7393  30.4765 11.65462593125133
GLOBALSTAR M006 [-]     
1 25307U 98023B   23332.88589240 -.00000037  00000+0  79844-3 0  9991
2 25307  51.9909 186.5313 0003856 150.4681 313.1865 11.58157449151218
GLOBALSTAR M015 [-]     
1 25308U 98023C   23333.18496008 -.00000054  00000+0  44693-3 0  9998
2 25308  51.9822 258.3224 0012285 144.1334   4.3396 11.48858305129405
GLOBALSTAR M008 [-]     
1 25309U 98023D   23333.17202406 -.00000055  00000+0  32493-3 0  9991
2 25309  51.9993  39.0208 0002798  72.4793 305.2302 12.36032487168160
